[{"OBJECT_NAME":"SITRO-AIS 21","OBJECT_ID":"2024-199E","EPOCH":"2026-03-09T22:38:47.668992","MEAN_MOTION":14.94747634,"ECCENTRICITY":0.00136926,"INCLINATION":97.333,"RA_OF_ASC_NODE":273.2344,"ARG_OF_PERICENTER":42.1108,"MEAN_ANOMALY":318.1163,"EPHEMERIS_TYPE":0,"CLASSIFICATION_TYPE":"U","NORAD_CAT_ID":61739,"ELEMENT_SET_NO":999,"REV_AT_EPOCH":11692,"BSTAR":0.00018121744,"MEAN_MOTION_DOT":1.92e-5,"MEAN_MOTION_DDOT":0},{"OBJECT_NAME":"STARLINK-34663","OBJECT_ID":"2025-150T","EPOCH":"2026-03-09T14:35:13.289280","MEAN_MOTION":14.98334733,"ECCENTRICITY":0.0003609,"INCLINATION":70.0019,"RA_OF_ASC_NODE":134.7012,"ARG_OF_PERICENTER":271.2876,"MEAN_ANOMALY":88.7869,"EPHEMERIS_TYPE":0,"CLASSIFICATION_TYPE":"U","NORAD_CAT_ID":64807,"ELEMENT_SET_NO":999,"REV_AT_EPOCH":3650,"BSTAR":0.0001693,"MEAN_MOTION_DOT":1.928e-5,"MEAN_MOTION_DDOT":0}]
